[{"OBJECT_NAME":"TOMORROW-R2","OBJECT_ID":"2023-084AG","EPOCH":"2026-03-09T21:19:23.098656","MEAN_MOTION":15.71879583,"ECCENTRICITY":0.00051142,"INCLINATION":97.5895,"RA_OF_ASC_NODE":222.1734,"ARG_OF_PERICENTER":248.1295,"MEAN_ANOMALY":111.9424,"EPHEMERIS_TYPE":0,"CLASSIFICATION_TYPE":"U","NORAD_CAT_ID":56962,"ELEMENT_SET_NO":999,"REV_AT_EPOCH":15332,"BSTAR":0.00081619373,"MEAN_MOTION_DOT":0.00107013,"MEAN_MOTION_DDOT":0},{"OBJECT_NAME":"STARLINK-11609 [DTC]","OBJECT_ID":"2025-043A","EPOCH":"2026-03-09T15:26:37.557600","MEAN_MOTION":15.70818887,"ECCENTRICITY":0.0005774,"INCLINATION":42.9998,"RA_OF_ASC_NODE":251.1058,"ARG_OF_PERICENTER":296.7787,"MEAN_ANOMALY":63.249,"EPHEMERIS_TYPE":0,"CLASSIFICATION_TYPE":"U","NORAD_CAT_ID":63132,"ELEMENT_SET_NO":999,"REV_AT_EPOCH":5945,"BSTAR":0.0018229,"MEAN_MOTION_DOT":0.0024027,"MEAN_MOTION_DDOT":0}]
